<?xml version="1.0" encoding="UTF-8"?>
<ndm xmlns:xsi="http://www.w3.org/2001/XMLSchema-instance" xsi:noNamespaceSchemaLocation="https://sanaregistry.org/r/ndmxml_unqualified/ndmxml-2.0.0-master-2.0.xsd">
<omm id="CCSDS_OMM_VERS" version="2.0">
<header><CREATION_DATE/><ORIGINATOR/></header><body><segment><metadata><OBJECT_NAME>ORBCOMM FM20</OBJECT_NAME><OBJECT_ID>1998-046D</OBJECT_ID><CENTER_NAME>EARTH</CENTER_NAME><REF_FRAME>TEME</REF_FRAME><TIME_SYSTEM>UTC</TIME_SYSTEM><MEAN_ELEMENT_THEORY>SGP4</MEAN_ELEMENT_THEORY></metadata><data><meanElements><EPOCH>2024-09-30T12:52:38.455680</EPOCH><MEAN_MOTION>14.35907840</MEAN_MOTION><ECCENTRICITY>.0002051</ECCENTRICITY><INCLINATION>44.9953</INCLINATION><RA_OF_ASC_NODE>329.8685</RA_OF_ASC_NODE><ARG_OF_PERICENTER>264.6258</ARG_OF_PERICENTER><MEAN_ANOMALY>95.4355</MEAN_ANOMALY></meanElements><tleParameters><EPHEMERIS_TYPE>0</EPHEMERIS_TYPE><CLASSIFICATION_TYPE>U</CLASSIFICATION_TYPE><NORAD_CAT_ID>25416</NORAD_CAT_ID><ELEMENT_SET_NO>999</ELEMENT_SET_NO><REV_AT_EPOCH>36692</REV_AT_EPOCH><BSTAR>.11196E-2</BSTAR><MEAN_MOTION_DOT>.3136E-4</MEAN_MOTION_DOT><MEAN_MOTION_DDOT>0</MEAN_MOTION_DDOT></tleParameters></data></segment></body></omm>
<omm id="CCSDS_OMM_VERS" version="2.0">
<header><CREATION_DATE/><ORIGINATOR/></header><body><segment><metadata><OBJECT_NAME>ORBCOMM FM16</OBJECT_NAME><OBJECT_ID>1998-046E</OBJECT_ID><CENTER_NAME>EARTH</CENTER_NAME><REF_FRAME>TEME</REF_FRAME><TIME_SYSTEM>UTC</TIME_SYSTEM><MEAN_ELEMENT_THEORY>SGP4</MEAN_ELEMENT_THEORY></metadata><data><meanElements><EPOCH>2024-09-30T14:17:31.636320</EPOCH><MEAN_MOTION>14.37141812</MEAN_MOTION><ECCENTRICITY>.0001757</ECCENTRICITY><INCLINATION>44.9944</INCLINATION><RA_OF_ASC_NODE>324.1646</RA_OF_ASC_NODE><ARG_OF_PERICENTER>43.7743</ARG_OF_PERICENTER><MEAN_ANOMALY>316.3244</MEAN_ANOMALY></meanElements><tleParameters><EPHEMERIS_TYPE>0</EPHEMERIS_TYPE><CLASSIFICATION_TYPE>U</CLASSIFICATION_TYPE><NORAD_CAT_ID>25417</NORAD_CAT_ID><ELEMENT_SET_NO>999</ELEMENT_SET_NO><REV_AT_EPOCH>36688</REV_AT_EPOCH><BSTAR>.15593E-2</BSTAR><MEAN_MOTION_DOT>.4539E-4</MEAN_MOTION_DOT><MEAN_MOTION_DDOT>0</MEAN_MOTION_DDOT></tleParameters></data></segment></body></omm>
<omm id="CCSDS_OMM_VERS" version="2.0">
<header><CREATION_DATE/><ORIGINATOR/></header><body><segment><metadata><OBJECT_NAME>ORBCOMM FM15</OBJECT_NAME><OBJECT_ID>1998-046F</OBJECT_ID><CENTER_NAME>EARTH</CENTER_NAME><REF_FRAME>TEME</REF_FRAME><TIME_SYSTEM>UTC</TIME_SYSTEM><MEAN_ELEMENT_THEORY>SGP4</MEAN_ELEMENT_THEORY></metadata><data><meanElements><EPOCH>2024-09-30T13:56:55.870080</EPOCH><MEAN_MOTION>14.36828812</MEAN_MOTION><ECCENTRICITY>.0001202</ECCENTRICITY><INCLINATION>44.9974</INCLINATION><RA_OF_ASC_NODE>328.6481</RA_OF_ASC_NODE><ARG_OF_PERICENTER>47.9108</ARG_OF_PERICENTER><MEAN_ANOMALY>312.1842</MEAN_ANOMALY></meanElements><tleParameters><EPHEMERIS_TYPE>0</EPHEMERIS_TYPE><CLASSIFICATION_TYPE>U</CLASSIFICATION_TYPE><NORAD_CAT_ID>25418</NORAD_CAT_ID><ELEMENT_SET_NO>999</ELEMENT_SET_NO><REV_AT_EPOCH>36688</REV_AT_EPOCH><BSTAR>.14126E-2</BSTAR><MEAN_MOTION_DOT>.4072E-4</MEAN_MOTION_DOT><MEAN_MOTION_DDOT>0</MEAN_MOTION_DDOT></tleParameters></data></segment></body></omm>
<omm id="CCSDS_OMM_VERS" version="2.0">
<header><CREATION_DATE/><ORIGINATOR/></header><body><segment><metadata><OBJECT_NAME>ORBCOMM FM14</OBJECT_NAME><OBJECT_ID>1998-046G</OBJECT_ID><CENTER_NAME>EARTH</CENTER_NAME><REF_FRAME>TEME</REF_FRAME><TIME_SYSTEM>UTC</TIME_SYSTEM><MEAN_ELEMENT_THEORY>SGP4</MEAN_ELEMENT_THEORY></metadata><data><meanElements><EPOCH>2024-09-30T14:03:24.653664</EPOCH><MEAN_MOTION>14.37066749</MEAN_MOTION><ECCENTRICITY>.0001085</ECCENTRICITY><INCLINATION>44.9962</INCLINATION><RA_OF_ASC_NODE>327.5080</RA_OF_ASC_NODE><ARG_OF_PERICENTER>336.8754</ARG_OF_PERICENTER><MEAN_ANOMALY>23.2045</MEAN_ANOMALY></meanElements><tleParameters><EPHEMERIS_TYPE>0</EPHEMERIS_TYPE><CLASSIFICATION_TYPE>U</CLASSIFICATION_TYPE><NORAD_CAT_ID>25419</NORAD_CAT_ID><ELEMENT_SET_NO>999</ELEMENT_SET_NO><REV_AT_EPOCH>36684</REV_AT_EPOCH><BSTAR>.14052E-2</BSTAR><MEAN_MOTION_DOT>.407E-4</MEAN_MOTION_DOT><MEAN_MOTION_DDOT>0</MEAN_MOTION_DDOT></tleParameters></data></segment></body></omm>
<omm id="CCSDS_OMM_VERS" version="2.0">
<header><CREATION_DATE/><ORIGINATOR/></header><body><segment><metadata><OBJECT_NAME>ORBCOMM FM13</OBJECT_NAME><OBJECT_ID>1998-046H</OBJECT_ID><CENTER_NAME>EARTH</CENTER_NAME><REF_FRAME>TEME</REF_FRAME><TIME_SYSTEM>UTC</TIME_SYSTEM><MEAN_ELEMENT_THEORY>SGP4</MEAN_ELEMENT_THEORY></metadata><data><meanElements><EPOCH>2024-09-30T13:42:11.323296</EPOCH><MEAN_MOTION>14.36185434</MEAN_MOTION><ECCENTRICITY>.0002803</ECCENTRICITY><INCLINATION>44.9984</INCLINATION><RA_OF_ASC_NODE>333.3312</RA_OF_ASC_NODE><ARG_OF_PERICENTER>29.0057</ARG_OF_PERICENTER><MEAN_ANOMALY>331.0946</MEAN_ANOMALY></meanElements><tleParameters><EPHEMERIS_TYPE>0</EPHEMERIS_TYPE><CLASSIFICATION_TYPE>U</CLASSIFICATION_TYPE><NORAD_CAT_ID>25420</NORAD_CAT_ID><ELEMENT_SET_NO>999</ELEMENT_SET_NO><REV_AT_EPOCH>36589</REV_AT_EPOCH><BSTAR>.13538E-2</BSTAR><MEAN_MOTION_DOT>.3845E-4</MEAN_MOTION_DOT><MEAN_MOTION_DDOT>0</MEAN_MOTION_DDOT></tleParameters></data></segment></body></omm>
<omm id="CCSDS_OMM_VERS" version="2.0">
<header><CREATION_DATE/><ORIGINATOR/></header><body><segment><metadata><OBJECT_NAME>ORBCOMM FM21</OBJECT_NAME><OBJECT_ID>1998-053A</OBJECT_ID><CENTER_NAME>EARTH</CENTER_NAME><REF_FRAME>TEME</REF_FRAME><TIME_SYSTEM>UTC</TIME_SYSTEM><MEAN_ELEMENT_THEORY>SGP4</MEAN_ELEMENT_THEORY></metadata><data><meanElements><EPOCH>2024-09-30T12:46:47.627616</EPOCH><MEAN_MOTION>14.36017007</MEAN_MOTION><ECCENTRICITY>.0000755</ECCENTRICITY><INCLINATION>45.0084</INCLINATION><RA_OF_ASC_NODE>58.0751</RA_OF_ASC_NODE><ARG_OF_PERICENTER>219.9174</ARG_OF_PERICENTER><MEAN_ANOMALY>140.1618</MEAN_ANOMALY></meanElements><tleParameters><EPHEMERIS_TYPE>0</EPHEMERIS_TYPE><CLASSIFICATION_TYPE>U</CLASSIFICATION_TYPE><NORAD_CAT_ID>25475</NORAD_CAT_ID><ELEMENT_SET_NO>999</ELEMENT_SET_NO><REV_AT_EPOCH>35990</REV_AT_EPOCH><BSTAR>.13065E-2</BSTAR><MEAN_MOTION_DOT>.3692E-4</MEAN_MOTION_DOT><MEAN_MOTION_DDOT>0</MEAN_MOTION_DDOT></tleParameters></data></segment></body></omm>
<omm id="CCSDS_OMM_VERS" version="2.0">
<header><CREATION_DATE/><ORIGINATOR/></header><body><segment><metadata><OBJECT_NAME>ORBCOMM FM22</OBJECT_NAME><OBJECT_ID>1998-053B</OBJECT_ID><CENTER_NAME>EARTH</CENTER_NAME><REF_FRAME>TEME</REF_FRAME><TIME_SYSTEM>UTC</TIME_SYSTEM><MEAN_ELEMENT_THEORY>SGP4</MEAN_ELEMENT_THEORY></metadata><data><meanElements><EPOCH>2024-09-30T12:29:57.735168</EPOCH><MEAN_MOTION>14.36695258</MEAN_MOTION><ECCENTRICITY>.0001319</ECCENTRICITY><INCLINATION>45.0076</INCLINATION><RA_OF_ASC_NODE>54.7618</RA_OF_ASC_NODE><ARG_OF_PERICENTER>317.0445</ARG_OF_PERICENTER><MEAN_ANOMALY>43.0300</MEAN_ANOMALY></meanElements><tleParameters><EPHEMERIS_TYPE>0</EPHEMERIS_TYPE><CLASSIFICATION_TYPE>U</CLASSIFICATION_TYPE><NORAD_CAT_ID>25476</NORAD_CAT_ID><ELEMENT_SET_NO>999</ELEMENT_SET_NO><REV_AT_EPOCH>35990</REV_AT_EPOCH><BSTAR>.1644E-2</BSTAR><MEAN_MOTION_DOT>.4749E-4</MEAN_MOTION_DOT><MEAN_MOTION_DDOT>0</MEAN_MOTION_DDOT></tleParameters></data></segment></body></omm>
<omm id="CCSDS_OMM_VERS" version="2.0">
<header><CREATION_DATE/><ORIGINATOR/></header><body><segment><metadata><OBJECT_NAME>ORBCOMM FM23</OBJECT_NAME><OBJECT_ID>1998-053C</OBJECT_ID><CENTER_NAME>EARTH</CENTER_NAME><REF_FRAME>TEME</REF_FRAME><TIME_SYSTEM>UTC</TIME_SYSTEM><MEAN_ELEMENT_THEORY>SGP4</MEAN_ELEMENT_THEORY></metadata><data><meanElements><EPOCH>2024-09-30T13:20:41.189856</EPOCH><MEAN_MOTION>14.36074603</MEAN_MOTION><ECCENTRICITY>.0000777</ECCENTRICITY><INCLINATION>45.0081</INCLINATION><RA_OF_ASC_NODE>60.3391</RA_OF_ASC_NODE><ARG_OF_PERICENTER>295.8843</ARG_OF_PERICENTER><MEAN_ANOMALY>64.1925</MEAN_ANOMALY></meanElements><tleParameters><EPHEMERIS_TYPE>0</EPHEMERIS_TYPE><CLASSIFICATION_TYPE>U</CLASSIFICATION_TYPE><NORAD_CAT_ID>25477</NORAD_CAT_ID><ELEMENT_SET_NO>999</ELEMENT_SET_NO><REV_AT_EPOCH>36005</REV_AT_EPOCH><BSTAR>.1411E-2</BSTAR><MEAN_MOTION_DOT>.4004E-4</MEAN_MOTION_DOT><MEAN_MOTION_DDOT>0</MEAN_MOTION_DDOT></tleParameters></data></segment></body></omm>

</ndm>
